{"fetched_at":"2026-03-30T06:02:59Z","count":15439,"tles":[{"name":"STARLINK-34902","line1":"1 65326U 25189D   26087.81628938  .00020414  00000+0  69926-3 0  9990","line2":"2 65326  53.1601 118.0087 0001155  86.3646 273.7487 15.30209666 34036","category":"Starlink"}]}